{"type": "FeatureCollection", "features": [{"type": "Feature", "geometry": {"type": "Polygon", "coordinates": [[[-1.564621, 47.207967], [-1.564621, 47.208147], [-1.564614, 47.208147], [-1.564607, 47.208147], [-1.5646, 47.208146], [-1.564594, 47.208146], [-1.564587, 47.208145], [-1.56458, 47.208145], [-1.564573, 47.208144], [-1.564566, 47.208143], [-1.564559, 47.208142], [-1.564553, 47.208141], [-1.564546, 47.208139], [-1.56454, 47.208138], [-1.564533, 47.208137], [-1.564526, 47.208135], [-1.56452, 47.208133], [-1.564514, 47.208131], [-1.564507, 47.208129], [-1.564501, 47.208127], [-1.564495, 47.208125], [-1.564489, 47.208123], [-1.564483, 47.20812], [-1.564477, 47.208118], [-1.564472, 47.208115], [-1.564466, 47.208112], [-1.56446, 47.20811], [-1.564455, 47.208107], [-1.56445, 47.208104], [-1.564444, 47.208101], [-1.564439, 47.208097], [-1.564434, 47.208094], [-1.564621, 47.207967]]]}, "properties": {"Area": "N_NE_R1", "Risk": "W"}}, {"type": "Feature", "geometry": {"type": "Polygon", "coordinates": [[[-1.564621, 47.207967], [-1.564434, 47.208094], [-1.56443, 47.208091], [-1.564425, 47.208087], [-1.56442, 47.208084], [-1.564416, 47.20808], [-1.564412, 47.208076], [-1.564408, 47.208073], [-1.564404, 47.208069], [-1.5644, 47.208065], [-1.564396, 47.208061], [-1.564392, 47.208057], [-1.564389, 47.208053], [-1.564386, 47.208049], [-1.564383, 47.208044], [-1.56438, 47.20804], [-1.564377, 47.208036], [-1.564375, 47.208031], [-1.564372, 47.208027], [-1.56437, 47.208023], [-1.564368, 47.208018], [-1.564366, 47.208014], [-1.564364, 47.208009], [-1.564363, 47.208004], [-1.564362, 47.208], [-1.56436, 47.207995], [-1.564359, 47.20799], [-1.564359, 47.207986], [-1.564358, 47.207981], [-1.564357, 47.207976], [-1.564357, 47.207972], [-1.564357, 47.207967], [-1.564621, 47.207967]]]}, "properties": {"Area": "NE_E_R1", "Risk": "H"}}, {"type": "Feature", "geometry": {"type": "Polygon", "coordinates": [[[-1.564621, 47.207967], [-1.564357, 47.207967], [-1.564357, 47.207962], [-1.564357, 47.207958], [-1.564358, 47.207953], [-1.564359, 47.207948], [-1.564359, 47.207943], [-1.56436, 47.207939], [-1.564362, 47.207934], [-1.564363, 47.20793], [-1.564364, 47.207925], [-1.564366, 47.20792], [-1.564368, 47.207916], [-1.56437, 47.207911], [-1.564372, 47.207907], [-1.564375, 47.207902], [-1.564377, 47.207898], [-1.56438, 47.207894], [-1.564383, 47.207889], [-1.564386, 47.207885], [-1.564389, 47.207881], [-1.564392, 47.207877], [-1.564396, 47.207873], [-1.5644, 47.207869], [-1.564404, 47.207865], [-1.564408, 47.207861], [-1.564412, 47.207857], [-1.564416, 47.207854], [-1.56442, 47.20785], [-1.564425, 47.207847], [-1.56443, 47.207843], [-1.564434, 47.20784], [-1.564621, 47.207967]]]}, "properties": {"Area": "E_SE_R1", "Risk": "H"}}, {"type": "Feature", "geometry": {"type": "Polygon", "coordinates": [[[-1.564621, 47.207967], [-1.564434, 47.20784], [-1.564439, 47.207836], [-1.564444, 47.207833], [-1.56445, 47.20783], [-1.564455, 47.207827], [-1.56446, 47.207824], [-1.564466, 47.207821], [-1.564472, 47.207819], [-1.564477, 47.207816], [-1.564483, 47.207814], [-1.564489, 47.207811], [-1.564495, 47.207809], [-1.564501, 47.207807], [-1.564507, 47.207805], [-1.564514, 47.207803], [-1.56452, 47.207801], [-1.564526, 47.207799], [-1.564533, 47.207797], [-1.56454, 47.207796], [-1.564546, 47.207794], [-1.564553, 47.207793], [-1.564559, 47.207792], [-1.564566, 47.207791], [-1.564573, 47.20779], [-1.56458, 47.207789], [-1.564587, 47.207789], [-1.564594, 47.207788], [-1.5646, 47.207788], [-1.564607, 47.207787], [-1.564614, 47.207787], [-1.564621, 47.207787], [-1.564621, 47.207967]]]}, "properties": {"Area": "SE_S_R1", "Risk": "H"}}, {"type": "Feature", "geometry": {"type": "Polygon", "coordinates": [[[-1.564621, 47.207967], [-1.564621, 47.207787], [-1.564628, 47.207787], [-1.564635, 47.207787], [-1.564642, 47.207788], [-1.564649, 47.207788], [-1.564656, 47.207789], [-1.564662, 47.207789], [-1.564669, 47.20779], [-1.564676, 47.207791], [-1.564683, 47.207792], [-1.564689, 47.207793], [-1.564696, 47.207794], [-1.564703, 47.207796], [-1.564709, 47.207797], [-1.564716, 47.207799], [-1.564722, 47.207801], [-1.564728, 47.207803], [-1.564735, 47.207805], [-1.564741, 47.207807], [-1.564747, 47.207809], [-1.564753, 47.207811], [-1.564759, 47.207814], [-1.564765, 47.207816], [-1.564771, 47.207819], [-1.564776, 47.207821], [-1.564782, 47.207824], [-1.564787, 47.207827], [-1.564793, 47.20783], [-1.564798, 47.207833], [-1.564803, 47.207836], [-1.564808, 47.20784], [-1.564621, 47.207967]]]}, "properties": {"Area": "S_SO_R1", "Risk": "H"}}, {"type": "Feature", "geometry": {"type": "Polygon", "coordinates": [[[-1.564621, 47.207967], [-1.564808, 47.20784], [-1.564813, 47.207843], [-1.564817, 47.207847], [-1.564822, 47.20785], [-1.564826, 47.207854], [-1.564831, 47.207857], [-1.564835, 47.207861], [-1.564839, 47.207865], [-1.564843, 47.207869], [-1.564846, 47.207873], [-1.56485, 47.207877], [-1.564853, 47.207881], [-1.564856, 47.207885], [-1.564859, 47.207889], [-1.564862, 47.207894], [-1.564865, 47.207898], [-1.564868, 47.207902], [-1.56487, 47.207907], [-1.564872, 47.207911], [-1.564874, 47.207916], [-1.564876, 47.20792], [-1.564878, 47.207925], [-1.564879, 47.20793], [-1.564881, 47.207934], [-1.564882, 47.207939], [-1.564883, 47.207943], [-1.564884, 47.207948], [-1.564884, 47.207953], [-1.564885, 47.207958], [-1.564885, 47.207962], [-1.564885, 47.207967], [-1.564621, 47.207967]]]}, "properties": {"Area": "SO_O_R1", "Risk": "H"}}, {"type": "Feature", "geometry": {"type": "Polygon", "coordinates": [[[-1.564621, 47.207967], [-1.564885, 47.207967], [-1.564885, 47.207972], [-1.564885, 47.207976], [-1.564884, 47.207981], [-1.564884, 47.207986], [-1.564883, 47.20799], [-1.564882, 47.207995], [-1.564881, 47.208], [-1.564879, 47.208004], [-1.564878, 47.208009], [-1.564876, 47.208014], [-1.564874, 47.208018], [-1.564872, 47.208023], [-1.56487, 47.208027], [-1.564868, 47.208031], [-1.564865, 47.208036], [-1.564862, 47.20804], [-1.564859, 47.208044], [-1.564856, 47.208049], [-1.564853, 47.208053], [-1.56485, 47.208057], [-1.564846, 47.208061], [-1.564843, 47.208065], [-1.564839, 47.208069], [-1.564835, 47.208073], [-1.564831, 47.208076], [-1.564826, 47.20808], [-1.564822, 47.208084], [-1.564817, 47.208087], [-1.564813, 47.208091], [-1.564808, 47.208094], [-1.564621, 47.207967]]]}, "properties": {"Area": "O_NO_R1", "Risk": "W"}}, {"type": "Feature", "geometry": {"type": "Polygon", "coordinates": [[[-1.564621, 47.207967], [-1.564808, 47.208094], [-1.564803, 47.208097], [-1.564798, 47.208101], [-1.564793, 47.208104], [-1.564787, 47.208107], [-1.564782, 47.20811], [-1.564776, 47.208112], [-1.564771, 47.208115], [-1.564765, 47.208118], [-1.564759, 47.20812], [-1.564753, 47.208123], [-1.564747, 47.208125], [-1.564741, 47.208127], [-1.564735, 47.208129], [-1.564728, 47.208131], [-1.564722, 47.208133], [-1.564716, 47.208135], [-1.564709, 47.208137], [-1.564703, 47.208138], [-1.564696, 47.208139], [-1.564689, 47.208141], [-1.564683, 47.208142], [-1.564676, 47.208143], [-1.564669, 47.208144], [-1.564662, 47.208145], [-1.564656, 47.208145], [-1.564649, 47.208146], [-1.564642, 47.208146], [-1.564635, 47.208147], [-1.564628, 47.208147], [-1.564621, 47.208147], [-1.564621, 47.207967]]]}, "properties": {"Area": "NO_N_R1", "Risk": "W"}}, {"type": "Feature", "geometry": {"type": "Polygon", "coordinates": [[[-1.564621, 47.208866], [-1.564587, 47.208866], [-1.564552, 47.208865], [-1.564518, 47.208864], [-1.564483, 47.208861], [-1.564449, 47.208859], [-1.564415, 47.208855], [-1.564381, 47.208851], [-1.564347, 47.208847], [-1.564313, 47.208842], [-1.564279, 47.208836], [-1.564246, 47.208829], [-1.564213, 47.208822], [-1.56418, 47.208815], [-1.564148, 47.208807], [-1.564116, 47.208798], [-1.564084, 47.208789], [-1.564053, 47.208779], [-1.564022, 47.208768], [-1.563991, 47.208757], [-1.563961, 47.208746], [-1.563931, 47.208734], [-1.563902, 47.208721], [-1.563873, 47.208708], [-1.563845, 47.208695], [-1.563818, 47.208681], [-1.56379, 47.208666], [-1.563764, 47.208651], [-1.563738, 47.208635], [-1.563712, 47.208619], [-1.563688, 47.208603], [-1.564434, 47.208094], [-1.564439, 47.208097], [-1.564444, 47.208101], [-1.56445, 47.208104], [-1.564455, 47.208107], [-1.56446, 47.20811], [-1.564466, 47.208112], [-1.564472, 47.208115], [-1.564477, 47.208118], [-1.564483, 47.20812], [-1.564489, 47.208123], [-1.564495, 47.208125], [-1.564501, 47.208127], [-1.564507, 47.208129], [-1.564514, 47.208131], [-1.56452, 47.208133], [-1.564526, 47.208135], [-1.564533, 47.208137], [-1.56454, 47.208138], [-1.564546, 47.208139], [-1.564553, 47.208141], [-1.564559, 47.208142], [-1.564566, 47.208143], [-1.564573, 47.208144], [-1.56458, 47.208145], [-1.564587, 47.208145], [-1.564594, 47.208146], [-1.5646, 47.208146], [-1.564607, 47.208147], [-1.564614, 47.208147], [-1.564621, 47.208147], [-1.564621, 47.208866]]]}, "properties": {"Area": "N_NE_R2", "Risk": "M"}}, {"type": "Feature", "geometry": {"type": "Polygon", "coordinates": [[[-1.563688, 47.208603], [-1.563664, 47.208586], [-1.56364, 47.208569], [-1.563617, 47.208551], [-1.563595, 47.208533], [-1.563574, 47.208515], [-1.563553, 47.208496], [-1.563533, 47.208476], [-1.563514, 47.208457], [-1.563496, 47.208437], [-1.563478, 47.208417], [-1.563461, 47.208396], [-1.563445, 47.208375], [-1.56343, 47.208354], [-1.563415, 47.208333], [-1.563402, 47.208311], [-1.563389, 47.208289], [-1.563377, 47.208267], [-1.563366, 47.208245], [-1.563356, 47.208222], [-1.563346, 47.2082], [-1.563338, 47.208177], [-1.56333, 47.208154], [-1.563323, 47.208131], [-1.563317, 47.208108], [-1.563312, 47.208084], [-1.563308, 47.208061], [-1.563305, 47.208038], [-1.563303, 47.208014], [-1.563302, 47.20799], [-1.563301, 47.207967], [-1.564357, 47.207967], [-1.564357, 47.207972], [-1.564357, 47.207976], [-1.564358, 47.207981], [-1.564359, 47.207986], [-1.564359, 47.20799], [-1.56436, 47.207995], [-1.564362, 47.208], [-1.564363, 47.208004], [-1.564364, 47.208009], [-1.564366, 47.208014], [-1.564368, 47.208018], [-1.56437, 47.208023], [-1.564372, 47.208027], [-1.564375, 47.208031], [-1.564377, 47.208036], [-1.56438, 47.20804], [-1.564383, 47.208044], [-1.564386, 47.208049], [-1.564389, 47.208053], [-1.564392, 47.208057], [-1.564396, 47.208061], [-1.5644, 47.208065], [-1.564404, 47.208069], [-1.564408, 47.208073], [-1.564412, 47.208076], [-1.564416, 47.20808], [-1.56442, 47.208084], [-1.564425, 47.208087], [-1.56443, 47.208091], [-1.564434, 47.208094], [-1.563688, 47.208603]]]}, "properties": {"Area": "NE_E_R2", "Risk": "L"}}, {"type": "Feature", "geometry": {"type": "Polygon", "coordinates": [[[-1.563301, 47.207967], [-1.563302, 47.207943], [-1.563303, 47.20792], [-1.563305, 47.207896], [-1.563308, 47.207873], [-1.563312, 47.20785], [-1.563317, 47.207826], [-1.563323, 47.207803], [-1.56333, 47.20778], [-1.563338, 47.207757], [-1.563346, 47.207734], [-1.563356, 47.207711], [-1.563366, 47.207689], [-1.563377, 47.207667], [-1.563389, 47.207645], [-1.563402, 47.207623], [-1.563415, 47.207601], [-1.56343, 47.20758], [-1.563445, 47.207559], [-1.563461, 47.207538], [-1.563478, 47.207517], [-1.563496, 47.207497], [-1.563514, 47.207477], [-1.563533, 47.207457], [-1.563553, 47.207438], [-1.563574, 47.207419], [-1.563595, 47.207401], [-1.563617, 47.207383], [-1.56364, 47.207365], [-1.563664, 47.207348], [-1.563688, 47.207331], [-1.564434, 47.20784], [-1.56443, 47.207843], [-1.564425, 47.207847], [-1.56442, 47.20785], [-1.564416, 47.207854], [-1.564412, 47.207857], [-1.564408, 47.207861], [-1.564404, 47.207865], [-1.5644, 47.207869], [-1.564396, 47.207873], [-1.564392, 47.207877], [-1.564389, 47.207881], [-1.564386, 47.207885], [-1.564383, 47.207889], [-1.56438, 47.207894], [-1.564377, 47.207898], [-1.564375, 47.207902], [-1.564372, 47.207907], [-1.56437, 47.207911], [-1.564368, 47.207916], [-1.564366, 47.20792], [-1.564364, 47.207925], [-1.564363, 47.20793], [-1.564362, 47.207934], [-1.56436, 47.207939], [-1.564359, 47.207943], [-1.564359, 47.207948], [-1.564358, 47.207953], [-1.564357, 47.207958], [-1.564357, 47.207962], [-1.564357, 47.207967], [-1.563301, 47.207967]]]}, "properties": {"Area": "E_SE_R2", "Risk": "H"}}, {"type": "Feature", "geometry": {"type": "Polygon", "coordinates": [[[-1.563688, 47.207331], [-1.563713, 47.207314], [-1.563738, 47.207298], [-1.563764, 47.207283], [-1.56379, 47.207268], [-1.563818, 47.207253], [-1.563845, 47.207239], [-1.563873, 47.207226], [-1.563902, 47.207213], [-1.563931, 47.2072], [-1.563961, 47.207188], [-1.563991, 47.207176], [-1.564022, 47.207165], [-1.564053, 47.207155], [-1.564084, 47.207145], [-1.564116, 47.207136], [-1.564148, 47.207127], [-1.564181, 47.207119], [-1.564213, 47.207111], [-1.564246, 47.207104], [-1.564279, 47.207098], [-1.564313, 47.207092], [-1.564347, 47.207087], [-1.564381, 47.207083], [-1.564415, 47.207079], [-1.564449, 47.207075], [-1.564483, 47.207072], [-1.564518, 47.20707], [-1.564552, 47.207069], [-1.564587, 47.207068], [-1.564621, 47.207067], [-1.564621, 47.207787], [-1.564614, 47.207787], [-1.564607, 47.207787], [-1.5646, 47.207788], [-1.564594, 47.207788], [-1.564587, 47.207789], [-1.56458, 47.207789], [-1.564573, 47.20779], [-1.564566, 47.207791], [-1.564559, 47.207792], [-1.564553, 47.207793], [-1.564546, 47.207794], [-1.56454, 47.207796], [-1.564533, 47.207797], [-1.564526, 47.207799], [-1.56452, 47.207801], [-1.564514, 47.207803], [-1.564507, 47.207805], [-1.564501, 47.207807], [-1.564495, 47.207809], [-1.564489, 47.207811], [-1.564483, 47.207814], [-1.564477, 47.207816], [-1.564472, 47.207819], [-1.564466, 47.207821], [-1.56446, 47.207824], [-1.564455, 47.207827], [-1.56445, 47.20783], [-1.564444, 47.207833], [-1.564439, 47.207836], [-1.564434, 47.20784], [-1.563688, 47.207331]]]}, "properties": {"Area": "SE_S_R2", "Risk": "H"}}, {"type": "Feature", "geometry": {"type": "Polygon", "coordinates": [[[-1.564621, 47.207067], [-1.564656, 47.207068], [-1.56469, 47.207069], [-1.564725, 47.20707], [-1.564759, 47.207072], [-1.564793, 47.207075], [-1.564828, 47.207079], [-1.564862, 47.207083], [-1.564896, 47.207087], [-1.564929, 47.207092], [-1.564963, 47.207098], [-1.564996, 47.207104], [-1.565029, 47.207111], [-1.565062, 47.207119], [-1.565094, 47.207127], [-1.565126, 47.207136], [-1.565158, 47.207145], [-1.565189, 47.207155], [-1.56522, 47.207165], [-1.565251, 47.207176], [-1.565281, 47.207188], [-1.565311, 47.2072], [-1.56534, 47.207213], [-1.565369, 47.207226], [-1.565397, 47.207239], [-1.565425, 47.207253], [-1.565452, 47.207268], [-1.565478, 47.207283], [-1.565504, 47.207298], [-1.56553, 47.207314], [-1.565554, 47.207331], [-1.564808, 47.20784], [-1.564803, 47.207836], [-1.564798, 47.207833], [-1.564793, 47.20783], [-1.564787, 47.207827], [-1.564782, 47.207824], [-1.564776, 47.207821], [-1.564771, 47.207819], [-1.564765, 47.207816], [-1.564759, 47.207814], [-1.564753, 47.207811], [-1.564747, 47.207809], [-1.564741, 47.207807], [-1.564735, 47.207805], [-1.564728, 47.207803], [-1.564722, 47.207801], [-1.564716, 47.207799], [-1.564709, 47.207797], [-1.564703, 47.207796], [-1.564696, 47.207794], [-1.564689, 47.207793], [-1.564683, 47.207792], [-1.564676, 47.207791], [-1.564669, 47.20779], [-1.564662, 47.207789], [-1.564656, 47.207789], [-1.564649, 47.207788], [-1.564642, 47.207788], [-1.564635, 47.207787], [-1.564628, 47.207787], [-1.564621, 47.207787], [-1.564621, 47.207067]]]}, "properties": {"Area": "S_SO_R2", "Risk": "H"}}, {"type": "Feature", "geometry": {"type": "Polygon", "coordinates": [[[-1.565554, 47.207331], [-1.565579, 47.207348], [-1.565602, 47.207365], [-1.565625, 47.207383], [-1.565647, 47.207401], [-1.565668, 47.207419], [-1.565689, 47.207438], [-1.565709, 47.207457], [-1.565728, 47.207477], [-1.565747, 47.207497], [-1.565764, 47.207517], [-1.565781, 47.207538], [-1.565797, 47.207559], [-1.565812, 47.20758], [-1.565827, 47.207601], [-1.565841, 47.207623], [-1.565853, 47.207645], [-1.565865, 47.207667], [-1.565876, 47.207689], [-1.565887, 47.207711], [-1.565896, 47.207734], [-1.565905, 47.207757], [-1.565912, 47.20778], [-1.565919, 47.207803], [-1.565925, 47.207826], [-1.56593, 47.20785], [-1.565934, 47.207873], [-1.565937, 47.207896], [-1.565939, 47.20792], [-1.565941, 47.207943], [-1.565941, 47.207967], [-1.564885, 47.207967], [-1.564885, 47.207962], [-1.564885, 47.207958], [-1.564884, 47.207953], [-1.564884, 47.207948], [-1.564883, 47.207943], [-1.564882, 47.207939], [-1.564881, 47.207934], [-1.564879, 47.20793], [-1.564878, 47.207925], [-1.564876, 47.20792], [-1.564874, 47.207916], [-1.564872, 47.207911], [-1.56487, 47.207907], [-1.564868, 47.207902], [-1.564865, 47.207898], [-1.564862, 47.207894], [-1.564859, 47.207889], [-1.564856, 47.207885], [-1.564853, 47.207881], [-1.56485, 47.207877], [-1.564846, 47.207873], [-1.564843, 47.207869], [-1.564839, 47.207865], [-1.564835, 47.207861], [-1.564831, 47.207857], [-1.564826, 47.207854], [-1.564822, 47.20785], [-1.564817, 47.207847], [-1.564813, 47.207843], [-1.564808, 47.20784], [-1.565554, 47.207331]]]}, "properties": {"Area": "SO_O_R2", "Risk": "H"}}, {"type": "Feature", "geometry": {"type": "Polygon", "coordinates": [[[-1.565941, 47.207967], [-1.565941, 47.20799], [-1.565939, 47.208014], [-1.565937, 47.208038], [-1.565934, 47.208061], [-1.56593, 47.208084], [-1.565925, 47.208108], [-1.565919, 47.208131], [-1.565912, 47.208154], [-1.565905, 47.208177], [-1.565896, 47.2082], [-1.565887, 47.208222], [-1.565876, 47.208245], [-1.565865, 47.208267], [-1.565853, 47.208289], [-1.565841, 47.208311], [-1.565827, 47.208333], [-1.565812, 47.208354], [-1.565797, 47.208375], [-1.565781, 47.208396], [-1.565764, 47.208417], [-1.565747, 47.208437], [-1.565728, 47.208457], [-1.565709, 47.208476], [-1.565689, 47.208496], [-1.565668, 47.208515], [-1.565647, 47.208533], [-1.565625, 47.208551], [-1.565602, 47.208569], [-1.565579, 47.208586], [-1.565554, 47.208603], [-1.564808, 47.208094], [-1.564813, 47.208091], [-1.564817, 47.208087], [-1.564822, 47.208084], [-1.564826, 47.20808], [-1.564831, 47.208076], [-1.564835, 47.208073], [-1.564839, 47.208069], [-1.564843, 47.208065], [-1.564846, 47.208061], [-1.56485, 47.208057], [-1.564853, 47.208053], [-1.564856, 47.208049], [-1.564859, 47.208044], [-1.564862, 47.20804], [-1.564865, 47.208036], [-1.564868, 47.208031], [-1.56487, 47.208027], [-1.564872, 47.208023], [-1.564874, 47.208018], [-1.564876, 47.208014], [-1.564878, 47.208009], [-1.564879, 47.208004], [-1.564881, 47.208], [-1.564882, 47.207995], [-1.564883, 47.20799], [-1.564884, 47.207986], [-1.564884, 47.207981], [-1.564885, 47.207976], [-1.564885, 47.207972], [-1.564885, 47.207967], [-1.565941, 47.207967]]]}, "properties": {"Area": "O_NO_R2", "Risk": "M"}}, {"type": "Feature", "geometry": {"type": "Polygon", "coordinates": [[[-1.565554, 47.208603], [-1.56553, 47.208619], [-1.565504, 47.208635], [-1.565478, 47.208651], [-1.565452, 47.208666], [-1.565425, 47.208681], [-1.565397, 47.208695], [-1.565369, 47.208708], [-1.56534, 47.208721], [-1.565311, 47.208734], [-1.565281, 47.208746], [-1.565251, 47.208757], [-1.56522, 47.208768], [-1.565189, 47.208779], [-1.565158, 47.208789], [-1.565126, 47.208798], [-1.565094, 47.208807], [-1.565062, 47.208815], [-1.565029, 47.208822], [-1.564996, 47.208829], [-1.564963, 47.208836], [-1.564929, 47.208842], [-1.564896, 47.208847], [-1.564862, 47.208851], [-1.564828, 47.208855], [-1.564793, 47.208859], [-1.564759, 47.208861], [-1.564725, 47.208864], [-1.56469, 47.208865], [-1.564656, 47.208866], [-1.564621, 47.208866], [-1.564621, 47.208147], [-1.564628, 47.208147], [-1.564635, 47.208147], [-1.564642, 47.208146], [-1.564649, 47.208146], [-1.564656, 47.208145], [-1.564662, 47.208145], [-1.564669, 47.208144], [-1.564676, 47.208143], [-1.564683, 47.208142], [-1.564689, 47.208141], [-1.564696, 47.208139], [-1.564703, 47.208138], [-1.564709, 47.208137], [-1.564716, 47.208135], [-1.564722, 47.208133], [-1.564728, 47.208131], [-1.564735, 47.208129], [-1.564741, 47.208127], [-1.564747, 47.208125], [-1.564753, 47.208123], [-1.564759, 47.20812], [-1.564765, 47.208118], [-1.564771, 47.208115], [-1.564776, 47.208112], [-1.564782, 47.20811], [-1.564787, 47.208107], [-1.564793, 47.208104], [-1.564798, 47.208101], [-1.564803, 47.208097], [-1.564808, 47.208094], [-1.565554, 47.208603]]]}, "properties": {"Area": "NO_N_R2", "Risk": "M"}}, {"type": "Feature", "geometry": {"type": "Polygon", "coordinates": [[[-1.564621, 47.209766], [-1.564552, 47.209765], [-1.564483, 47.209763], [-1.564414, 47.20976], [-1.564345, 47.209756], [-1.564277, 47.209751], [-1.564208, 47.209744], [-1.56414, 47.209736], [-1.564072, 47.209727], [-1.564005, 47.209716], [-1.563938, 47.209705], [-1.563871, 47.209692], [-1.563805, 47.209678], [-1.56374, 47.209663], [-1.563675, 47.209646], [-1.563611, 47.209629], [-1.563547, 47.20961], [-1.563485, 47.209591], [-1.563423, 47.20957], [-1.563361, 47.209548], [-1.563301, 47.209525], [-1.563242, 47.209501], [-1.563183, 47.209476], [-1.563126, 47.20945], [-1.563069, 47.209422], [-1.563014, 47.209394], [-1.56296, 47.209365], [-1.562907, 47.209335], [-1.562855, 47.209304], [-1.562804, 47.209272], [-1.562754, 47.209239], [-1.563688, 47.208603], [-1.563712, 47.208619], [-1.563738, 47.208635], [-1.563764, 47.208651], [-1.56379, 47.208666], [-1.563818, 47.208681], [-1.563845, 47.208695], [-1.563873, 47.208708], [-1.563902, 47.208721], [-1.563931, 47.208734], [-1.563961, 47.208746], [-1.563991, 47.208757], [-1.564022, 47.208768], [-1.564053, 47.208779], [-1.564084, 47.208789], [-1.564116, 47.208798], [-1.564148, 47.208807], [-1.56418, 47.208815], [-1.564213, 47.208822], [-1.564246, 47.208829], [-1.564279, 47.208836], [-1.564313, 47.208842], [-1.564347, 47.208847], [-1.564381, 47.208851], [-1.564415, 47.208855], [-1.564449, 47.208859], [-1.564483, 47.208861], [-1.564518, 47.208864], [-1.564552, 47.208865], [-1.564587, 47.208866], [-1.564621, 47.208866], [-1.564621, 47.209766]]]}, "properties": {"Area": "N_NE_R2", "Risk": "M"}}, {"type": "Feature", "geometry": {"type": "Polygon", "coordinates": [[[-1.562754, 47.209239], [-1.562706, 47.209205], [-1.562659, 47.209171], [-1.562614, 47.209135], [-1.562569, 47.209099], [-1.562527, 47.209062], [-1.562485, 47.209024], [-1.562445, 47.208986], [-1.562407, 47.208947], [-1.56237, 47.208907], [-1.562335, 47.208866], [-1.562301, 47.208825], [-1.562269, 47.208784], [-1.562238, 47.208741], [-1.562209, 47.208699], [-1.562182, 47.208655], [-1.562157, 47.208612], [-1.562133, 47.208567], [-1.56211, 47.208523], [-1.56209, 47.208478], [-1.562071, 47.208433], [-1.562054, 47.208387], [-1.562039, 47.208341], [-1.562025, 47.208295], [-1.562014, 47.208248], [-1.562004, 47.208202], [-1.561996, 47.208155], [-1.561989, 47.208108], [-1.561985, 47.208061], [-1.561982, 47.208014], [-1.561981, 47.207967], [-1.563301, 47.207967], [-1.563302, 47.20799], [-1.563303, 47.208014], [-1.563305, 47.208038], [-1.563308, 47.208061], [-1.563312, 47.208084], [-1.563317, 47.208108], [-1.563323, 47.208131], [-1.56333, 47.208154], [-1.563338, 47.208177], [-1.563346, 47.2082], [-1.563356, 47.208222], [-1.563366, 47.208245], [-1.563377, 47.208267], [-1.563389, 47.208289], [-1.563402, 47.208311], [-1.563415, 47.208333], [-1.56343, 47.208354], [-1.563445, 47.208375], [-1.563461, 47.208396], [-1.563478, 47.208417], [-1.563496, 47.208437], [-1.563514, 47.208457], [-1.563533, 47.208476], [-1.563553, 47.208496], [-1.563574, 47.208515], [-1.563595, 47.208533], [-1.563617, 47.208551], [-1.56364, 47.208569], [-1.563664, 47.208586], [-1.563688, 47.208603], [-1.562754, 47.209239]]]}, "properties": {"Area": "NE_E_R2", "Risk": "L"}}, {"type": "Feature", "geometry": {"type": "Polygon", "coordinates": [[[-1.561981, 47.207967], [-1.561982, 47.20792], [-1.561985, 47.207873], [-1.561989, 47.207826], [-1.561996, 47.207779], [-1.562004, 47.207732], [-1.562014, 47.207685], [-1.562025, 47.207639], [-1.562039, 47.207593], [-1.562054, 47.207547], [-1.562071, 47.207501], [-1.56209, 47.207456], [-1.56211, 47.207411], [-1.562133, 47.207366], [-1.562157, 47.207322], [-1.562182, 47.207278], [-1.562209, 47.207235], [-1.562238, 47.207192], [-1.562269, 47.20715], [-1.562301, 47.207109], [-1.562335, 47.207067], [-1.56237, 47.207027], [-1.562407, 47.206987], [-1.562446, 47.206948], [-1.562485, 47.20691], [-1.562527, 47.206872], [-1.56257, 47.206835], [-1.562614, 47.206799], [-1.562659, 47.206763], [-1.562706, 47.206729], [-1.562754, 47.206695], [-1.563688, 47.207331], [-1.563664, 47.207348], [-1.56364, 47.207365], [-1.563617, 47.207383], [-1.563595, 47.207401], [-1.563574, 47.207419], [-1.563553, 47.207438], [-1.563533, 47.207457], [-1.563514, 47.207477], [-1.563496, 47.207497], [-1.563478, 47.207517], [-1.563461, 47.207538], [-1.563445, 47.207559], [-1.56343, 47.20758], [-1.563415, 47.207601], [-1.563402, 47.207623], [-1.563389, 47.207645], [-1.563377, 47.207667], [-1.563366, 47.207689], [-1.563356, 47.207711], [-1.563346, 47.207734], [-1.563338, 47.207757], [-1.56333, 47.20778], [-1.563323, 47.207803], [-1.563317, 47.207826], [-1.563312, 47.20785], [-1.563308, 47.207873], [-1.563305, 47.207896], [-1.563303, 47.20792], [-1.563302, 47.207943], [-1.563301, 47.207967], [-1.561981, 47.207967]]]}, "properties": {"Area": "E_SE_R2", "Risk": "H"}}, {"type": "Feature", "geometry": {"type": "Polygon", "coordinates": [[[-1.562754, 47.206695], [-1.562804, 47.206662], [-1.562855, 47.20663], [-1.562907, 47.206599], [-1.56296, 47.206569], [-1.563014, 47.20654], [-1.563069, 47.206512], [-1.563126, 47.206484], [-1.563183, 47.206458], [-1.563242, 47.206433], [-1.563301, 47.206409], [-1.563361, 47.206386], [-1.563423, 47.206364], [-1.563485, 47.206343], [-1.563547, 47.206323], [-1.563611, 47.206305], [-1.563675, 47.206287], [-1.56374, 47.206271], [-1.563805, 47.206256], [-1.563871, 47.206242], [-1.563938, 47.206229], [-1.564005, 47.206218], [-1.564072, 47.206207], [-1.56414, 47.206198], [-1.564208, 47.20619], [-1.564277, 47.206183], [-1.564345, 47.206178], [-1.564414, 47.206174], [-1.564483, 47.20617], [-1.564552, 47.206169], [-1.564621, 47.206168], [-1.564621, 47.207067], [-1.564587, 47.207068], [-1.564552, 47.207069], [-1.564518, 47.20707], [-1.564483, 47.207072], [-1.564449, 47.207075], [-1.564415, 47.207079], [-1.564381, 47.207083], [-1.564347, 47.207087], [-1.564313, 47.207092], [-1.564279, 47.207098], [-1.564246, 47.207104], [-1.564213, 47.207111], [-1.564181, 47.207119], [-1.564148, 47.207127], [-1.564116, 47.207136], [-1.564084, 47.207145], [-1.564053, 47.207155], [-1.564022, 47.207165], [-1.563991, 47.207176], [-1.563961, 47.207188], [-1.563931, 47.2072], [-1.563902, 47.207213], [-1.563873, 47.207226], [-1.563845, 47.207239], [-1.563818, 47.207253], [-1.56379, 47.207268], [-1.563764, 47.207283], [-1.563738, 47.207298], [-1.563713, 47.207314], [-1.563688, 47.207331], [-1.562754, 47.206695]]]}, "properties": {"Area": "SE_S_R2", "Risk": "H"}}, {"type": "Feature", "geometry": {"type": "Polygon", "coordinates": [[[-1.564621, 47.206168], [-1.56469, 47.206169], [-1.564759, 47.20617], [-1.564828, 47.206174], [-1.564897, 47.206178], [-1.564966, 47.206183], [-1.565034, 47.20619], [-1.565102, 47.206198], [-1.56517, 47.206207], [-1.565237, 47.206218], [-1.565304, 47.206229], [-1.565371, 47.206242], [-1.565437, 47.206256], [-1.565502, 47.206271], [-1.565567, 47.206287], [-1.565631, 47.206305], [-1.565695, 47.206323], [-1.565758, 47.206343], [-1.56582, 47.206364], [-1.565881, 47.206386], [-1.565941, 47.206409], [-1.566, 47.206433], [-1.566059, 47.206458], [-1.566116, 47.206484], [-1.566173, 47.206512], [-1.566228, 47.20654], [-1.566282, 47.206569], [-1.566336, 47.206599], [-1.566387, 47.20663], [-1.566438, 47.206662], [-1.566488, 47.206695], [-1.565554, 47.207331], [-1.56553, 47.207314], [-1.565504, 47.207298], [-1.565478, 47.207283], [-1.565452, 47.207268], [-1.565425, 47.207253], [-1.565397, 47.207239], [-1.565369, 47.207226], [-1.56534, 47.207213], [-1.565311, 47.2072], [-1.565281, 47.207188], [-1.565251, 47.207176], [-1.56522, 47.207165], [-1.565189, 47.207155], [-1.565158, 47.207145], [-1.565126, 47.207136], [-1.565094, 47.207127], [-1.565062, 47.207119], [-1.565029, 47.207111], [-1.564996, 47.207104], [-1.564963, 47.207098], [-1.564929, 47.207092], [-1.564896, 47.207087], [-1.564862, 47.207083], [-1.564828, 47.207079], [-1.564793, 47.207075], [-1.564759, 47.207072], [-1.564725, 47.20707], [-1.56469, 47.207069], [-1.564656, 47.207068], [-1.564621, 47.207067], [-1.564621, 47.206168]]]}, "properties": {"Area": "S_SO_R2", "Risk": "H"}}, {"type": "Feature", "geometry": {"type": "Polygon", "coordinates": [[[-1.566488, 47.206695], [-1.566536, 47.206729], [-1.566583, 47.206763], [-1.566628, 47.206799], [-1.566673, 47.206835], [-1.566715, 47.206872], [-1.566757, 47.20691], [-1.566797, 47.206948], [-1.566835, 47.206987], [-1.566872, 47.207027], [-1.566907, 47.207067], [-1.566941, 47.207109], [-1.566973, 47.20715], [-1.567004, 47.207192], [-1.567033, 47.207235], [-1.56706, 47.207278], [-1.567086, 47.207322], [-1.56711, 47.207366], [-1.567132, 47.207411], [-1.567152, 47.207456], [-1.567171, 47.207501], [-1.567188, 47.207547], [-1.567203, 47.207593], [-1.567217, 47.207639], [-1.567228, 47.207685], [-1.567238, 47.207732], [-1.567247, 47.207779], [-1.567253, 47.207826], [-1.567257, 47.207873], [-1.56726, 47.20792], [-1.567261, 47.207967], [-1.565941, 47.207967], [-1.565941, 47.207943], [-1.565939, 47.20792], [-1.565937, 47.207896], [-1.565934, 47.207873], [-1.56593, 47.20785], [-1.565925, 47.207826], [-1.565919, 47.207803], [-1.565912, 47.20778], [-1.565905, 47.207757], [-1.565896, 47.207734], [-1.565887, 47.207711], [-1.565876, 47.207689], [-1.565865, 47.207667], [-1.565853, 47.207645], [-1.565841, 47.207623], [-1.565827, 47.207601], [-1.565812, 47.20758], [-1.565797, 47.207559], [-1.565781, 47.207538], [-1.565764, 47.207517], [-1.565747, 47.207497], [-1.565728, 47.207477], [-1.565709, 47.207457], [-1.565689, 47.207438], [-1.565668, 47.207419], [-1.565647, 47.207401], [-1.565625, 47.207383], [-1.565602, 47.207365], [-1.565579, 47.207348], [-1.565554, 47.207331], [-1.566488, 47.206695]]]}, "properties": {"Area": "SO_O_R2", "Risk": "H"}}, {"type": "Feature", "geometry": {"type": "Polygon", "coordinates": [[[-1.567261, 47.207967], [-1.56726, 47.208014], [-1.567257, 47.208061], [-1.567253, 47.208108], [-1.567247, 47.208155], [-1.567238, 47.208202], [-1.567229, 47.208248], [-1.567217, 47.208295], [-1.567203, 47.208341], [-1.567188, 47.208387], [-1.567171, 47.208433], [-1.567152, 47.208478], [-1.567132, 47.208523], [-1.56711, 47.208567], [-1.567086, 47.208612], [-1.56706, 47.208655], [-1.567033, 47.208699], [-1.567004, 47.208741], [-1.566973, 47.208784], [-1.566941, 47.208825], [-1.566907, 47.208866], [-1.566872, 47.208907], [-1.566835, 47.208947], [-1.566797, 47.208986], [-1.566757, 47.209024], [-1.566716, 47.209062], [-1.566673, 47.209099], [-1.566629, 47.209135], [-1.566583, 47.209171], [-1.566536, 47.209205], [-1.566488, 47.209239], [-1.565554, 47.208603], [-1.565579, 47.208586], [-1.565602, 47.208569], [-1.565625, 47.208551], [-1.565647, 47.208533], [-1.565668, 47.208515], [-1.565689, 47.208496], [-1.565709, 47.208476], [-1.565728, 47.208457], [-1.565747, 47.208437], [-1.565764, 47.208417], [-1.565781, 47.208396], [-1.565797, 47.208375], [-1.565812, 47.208354], [-1.565827, 47.208333], [-1.565841, 47.208311], [-1.565853, 47.208289], [-1.565865, 47.208267], [-1.565876, 47.208245], [-1.565887, 47.208222], [-1.565896, 47.2082], [-1.565905, 47.208177], [-1.565912, 47.208154], [-1.565919, 47.208131], [-1.565925, 47.208108], [-1.56593, 47.208084], [-1.565934, 47.208061], [-1.565937, 47.208038], [-1.565939, 47.208014], [-1.565941, 47.20799], [-1.565941, 47.207967], [-1.567261, 47.207967]]]}, "properties": {"Area": "O_NO_R2", "Risk": "M"}}, {"type": "Feature", "geometry": {"type": "Polygon", "coordinates": [[[-1.566488, 47.209239], [-1.566438, 47.209272], [-1.566388, 47.209304], [-1.566336, 47.209335], [-1.566282, 47.209365], [-1.566228, 47.209394], [-1.566173, 47.209422], [-1.566116, 47.20945], [-1.566059, 47.209476], [-1.566, 47.209501], [-1.565941, 47.209525], [-1.565881, 47.209548], [-1.56582, 47.20957], [-1.565758, 47.209591], [-1.565695, 47.20961], [-1.565631, 47.209629], [-1.565567, 47.209646], [-1.565502, 47.209663], [-1.565437, 47.209678], [-1.565371, 47.209692], [-1.565304, 47.209705], [-1.565237, 47.209716], [-1.56517, 47.209727], [-1.565102, 47.209736], [-1.565034, 47.209744], [-1.564966, 47.209751], [-1.564897, 47.209756], [-1.564828, 47.20976], [-1.564759, 47.209763], [-1.56469, 47.209765], [-1.564621, 47.209766], [-1.564621, 47.208866], [-1.564656, 47.208866], [-1.56469, 47.208865], [-1.564725, 47.208864], [-1.564759, 47.208861], [-1.564793, 47.208859], [-1.564828, 47.208855], [-1.564862, 47.208851], [-1.564896, 47.208847], [-1.564929, 47.208842], [-1.564963, 47.208836], [-1.564996, 47.208829], [-1.565029, 47.208822], [-1.565062, 47.208815], [-1.565094, 47.208807], [-1.565126, 47.208798], [-1.565158, 47.208789], [-1.565189, 47.208779], [-1.56522, 47.208768], [-1.565251, 47.208757], [-1.565281, 47.208746], [-1.565311, 47.208734], [-1.56534, 47.208721], [-1.565369, 47.208708], [-1.565397, 47.208695], [-1.565425, 47.208681], [-1.565452, 47.208666], [-1.565478, 47.208651], [-1.565504, 47.208635], [-1.56553, 47.208619], [-1.565554, 47.208603], [-1.566488, 47.209239]]]}, "properties": {"Area": "NO_N_R2", "Risk": "M"}}]}